IRIDIUM 119             
1 42959U 17061E   23300.41415264  .00000381  00000+0  12883-3 0  9995
2 42959  86.3960  68.0097 0001691  90.9683 269.1706 14.34216092316671
IRIDIUM 107             
1 42960U 17061F   23300.85178893  .00000148  00000+0  45615-4 0  9990
2 42960  86.3964  67.8423 0001847  98.3150 261.8255 14.34216869316750
IRIDIUM 132             
1 42961U 17061G   23300.36975396 -.00000479  00000+0 -17824-3 0  9999
2 42961  86.3956  68.0296 0001637  94.3864 265.7519 14.34216229316675
IRIDIUM 136             
1 42962U 17061H   23300.61077153  .00000335  00000+0  11272-3 0  9992
2 42962  86.3962  67.9314 0001946  87.0489 273.0930 14.34216552316721
IRIDIUM 139             
1 42963U 17061J   23300.82642214  .00000058  00000+0  13604-4 0  9996
2 42963  86.3963  67.8880 0001917  97.9912 262.1501 14.34215341316761
IRIDIUM 125             
1 42964U 17061K   23300.60443137  .00000458  00000+0  15649-3 0  9990
2 42964  86.3964  68.0240 0001768  94.0701 266.0697 14.34216638316741
IRIDIUM 135             
1 43070U 17083A   23300.22970920  .00000416  00000+0  14131-3 0  9995
2 43070  86.4017   4.8919 0002481  99.3820 260.7657 14.34217053305987
IRIDIUM 138             
1 43071U 17083B   23300.46438845  .00000122  00000+0  36480-4 0  9993
2 43071  86.4005   4.5406 0001927  92.2528 267.8889 14.34215807306008
